TIANLIAN 2-02           
1 50005U 21124A   25309.21183266 -.00000002  00000+0  00000+0 0  9999
2 50005   0.2183  91.9749 0005303 157.0167  42.9547  1.00272047 14372
TURKSAT 5B              
1 50212U 21126A   25309.04362131  .00000158  00000+0  00000+0 0  9993
2 50212   0.0757 332.5955 0003482 316.2264 173.4524  1.00270547 14056
INMARSAT 6-F1           
1 50319U 21128A   25309.12318172 -.00000160  00000+0  00000+0 0  9992
2 50319   0.0190 272.6382 0000121 321.3411 298.7515  1.00270046 14012
SHIYAN-12 01 (SY-12 01) 
1 50321U 21129A   25309.50754544 -.00000294  00000+0  00000+0 0  9993
2 50321   3.0944  83.0175 0003431 184.3613  92.3001  1.00437755 14253
SHIYAN-12 02 (SY-12 02) 
1 50322U 21129B   25309.48466078 -.00000308  00000+0  00000+0 0  9999
2 50322   3.0939  83.0147 0003337 175.5899  68.4332  1.00094749 14253
TJS-9                   
1 50574U 21135A   25309.20507263 -.00000287  00000+0  00000+0 0  9993
2 50574   0.1019  81.4146 0003621 213.8695 320.4880  1.00269583 14187
USA 324                 
1 51280U 22006A   25302.15694444  .00000114  00000+0  00000+0 0  9999
2 51280   0.2007  80.3675 0000771 359.4917  26.0821  1.00457179 13804
USA 325                 
1 51281U 22006B   25302.34792373 -.00000315  00000+0  00000+0 0  9995
2 51281   0.0245 285.0986 0008314 254.9015  81.7643  1.00493871 13815
GOES 18                 
1 51850U 22021A   25309.26511302  .00000108  00000+0  00000+0 0  9992
2 51850   0.0536  90.9680 0000818 181.0419  91.1965  1.00271314  4349
ZHONGXING-6D            
1 52255U 22038A   25308.53023765 -.00000341  00000+0  00000+0 0  9990
2 52255   0.0400 257.3081 0002486 351.9445 110.7604  1.00273299 13176
NILESAT 301             
1 52817U 22061A   25309.10524162 -.00000046  00000+0  00000+0 0  9993
2 52817   0.0563  30.0371 0002905 223.7404 181.7415  1.00270096 12499
CMS-02 (GSAT 24)        
1 52903U 22067A   25308.05286272 -.00000152  00000+0  00000+0 0  9993
2 52903   0.0122 206.0626 0004130  51.5873 247.9545  1.00271917 12350
MEASAT 3D               
1 52904U 22067B   25309.12474174 -.00000230  00000+0  00000+0 0  9990
2 52904   0.0339 346.2294 0002966 278.9431 275.8842  1.00271789 12402
SES-22                  
1 52933U 22071A   25309.26444201  .00000116  00000+0  00000+0 0  9992
2 52933   0.0100 304.4629 0001299 290.8376 125.6563  1.00271207  5271
WFOV (USA 332)          
1 52940U 22073A   25308.77353212 -.00000348  00000+0  00000+0 0  9996
2 52940   3.1309  81.4126 0001830 102.9635 257.5993  1.00266746 12126
TIANLIAN 2-03           
1 53100U 22078A   25309.18003536  .00000084  00000+0  00000+0 0  9993
2 53100   0.1279  39.7674 0003273 215.0771 225.2771  1.00273677 12309
SBIRS GEO-6 (USA 336)   
1 53355U 22092A   25308.42069303 -.00000285  00000+0  00000+0 0  9995
2 53355   3.6585 314.3107 0002195 272.3084 107.7731  1.00270901 11987
EUTELSAT KONNECT VHTS   
1 53765U 22110A   25309.17847535  .00000029  00000+0  00000+0 0  9990
2 53765   0.0575  92.4439 0002727 114.5297 264.6500  1.00269495  4589
ZHONGXING-1E            
1 53813U 22112A   25308.92058826 -.00000137  00000+0  00000+0 0  9996
2 53813   0.0497  54.0908 0005303 207.3967 195.7603  1.00269763 11606
SES-20                  
1 53960U 22123A   25308.78192108 -.00000089  00000+0  00000+0 0  9993
2 53960   0.0520  88.5217 0001532  45.4800  88.6940  1.00270540 11281
SES-21                  
1 53961U 22123B   25308.58120053  .00000082  00000+0  00000+0 0  9994
2 53961   0.0368  65.3013 0000905 153.0282 264.0080  1.00270568  4964
GALAXY 33 (G-33)        
1 54026U 22128A   25309.26645551  .00000090  00000+0  00000+0 0  9992
2 54026   0.0151 305.6349 0002040 282.4249 139.6410  1.00272305 11492
GALAXY 34 (G-34)        
1 54027U 22128B   25308.65297815  .00000071  00000+0  00000+0 0  9990
2 54027   0.0190 285.9226 0001461 297.5587 286.7455  1.00271877 11663
ANGOSAT 2               
1 54033U 22131A   25308.94489356  .00000000  00000+0  00000+0 0  9998
2 54033   0.0098 258.5313 0001705  21.0366 128.0205  1.00272975 11229
EUTELSAT HOTBIRD 13F    
1 54048U 22134A   25308.11032301  .00000100  00000+0  00000+0 0  9991
2 54048   0.0573 283.9801 0002090  75.1501  97.2142  1.00269479 11127
LDPE-2                  
1 54219U 22144A   25309.26804828 -.00000126  00000+0  00000+0 0  9999
2 54219   5.1012  65.2413 0001428 234.0620  71.9932  1.02054651  9571
EUTELSAT HOTBIRD 13G    
1 54225U 22146A   25308.11032301  .00000100  00000+0  00000+0 0  9991
2 54225   0.0484 241.3081 0001969 299.2062 275.8127  1.00270282  5201
ZHONGXING-19            
1 54230U 22148A   25309.21035933  .00000000  00000+0  00000+0 0  9994
2 54230   0.0103 269.3241 0008515 328.5455  45.9218  1.00270185 11137
GALAXY 31 (G-31)        
1 54243U 22153A   25309.27122258  .00000025  00000+0  00000+0 0  9994
2 54243   0.0157 224.0460 0001931  18.4527 138.9298  1.00272132  4880
GALAXY 32 (G-32)        
1 54244U 22153B   25308.16453870 -.00000162  00000+0  00000+0 0  9992
2 54244   0.0127 293.1405 0001633 355.1976  83.5870  1.00270975 10883
EUTELSAT 10B            
1 54259U 22157A   25309.17994869  .00000080  00000+0  00000+0 0  9990
2 54259   0.0586  90.5384 0001337  63.1711 325.7677  1.00268200 10780
GALAXY 35 (G-35)        
1 54741U 22170A   25309.28201532 -.00000151  00000+0  00000+0 0  9991
2 54741   0.0130 249.0825 0002459 344.9291 179.2097  1.00270942 10640
GALAXY 36 (G-36)        
1 54742U 22170B   25308.52342565 -.00000173  00000+0  00000+0 0  9994
2 54742   0.0181 246.4599 0000998 300.8201 316.2026  1.00272012 10526
METEOSAT-12 (MTG-I1)    
1 54743U 22170C   25309.17786867  .00000004  00000+0  00000+0 0  9996
2 54743   0.6807  25.1717 0001479 191.4593 251.7663  1.00268793 10739
SHIJIAN-23 (SJ-23)      
1 55131U 23002A   25309.46966736  .00000167  00000+0  00000+0 0  9990
2 55131   3.1401  81.1552 0001426 282.2613 242.4229  1.00476993 10268
APSTAR-6E               
1 55239U 23005A   25308.56461410 -.00000304  00000+0  00000+0 0  9995
2 55239   0.0132 231.4019 0004292   2.7977 147.1560  1.00274071 16442
USA 342                 
1 55263U 23008A   25307.55669920  .00000151  00000+0  00000+0 0  9998
2 55263   0.0108 282.4276 0000107  88.3039 256.5790  1.00272151 10253
LDPE-3A                 
1 55264U 23008B   25309.04405464  .00000118  00000+0  00000+0 0  9999
2 55264   1.6995  83.9567 0000930 164.3046 216.6967  1.00567867  9576
ELEKTRO-L 4             
1 55506U 23016A   25308.41739272 -.00000045  00000+0  00000+0 0  9994
2 55506   0.0488 228.0716 0002617  11.9973 119.9449  1.00270578 10081
AMAZONAS NEXUS          
1 55508U 23017A   25308.33472491 -.00000270  00000+0  00000+0 0  9995
2 55508   0.0564  49.1989 0001095 177.2484 236.9154  1.00269440  4794
ZHONGXING-26            
1 55686U 23023A   25309.70221295 -.00000343  00000+0  00000+0 0  9996
2 55686   0.0594  73.0331 0000813 117.7391 232.3181  1.00272432  9985
LUCH-5X (OLYMP-K 2)     
1 55841U 23031A   25309.47564740  .00000044  00000+0  00000+0 0  9994
2 55841   0.0302  89.3356 0001151 293.1287 255.7605  1.00273462  9693
GAOFEN-13 02            
1 55912U 23036A   25309.56017140 -.00000209  00000+0  00000+0 0  9999
2 55912   1.1261 334.0033 0003635 327.5794  93.4153  1.00270012  9855
SES-18                  
1 55970U 23038A   25308.58674725 -.00000089  00000+0  00000+0 0  9990
2 55970   0.0193 273.1166 0002977 334.9953 264.1227  1.00270762  9859
SES-19                  
1 55971U 23038B   25309.26578297  .00000099  00000+0  00000+0 0  9994
2 55971   0.0183 296.3059 0001884 289.9879 139.2598  1.00269853  9828
INTELSAT 40E (IS-40E)   
1 56174U 23052A   25309.13422582 -.00000162  00000+0  00000+0 0  9999
2 56174   0.0133 259.2777 0002381 313.3233 149.3532  1.00270914  9575
VIASAT-3                
1 56370U 23060A   25308.32316861 -.00000173  00000+0  00000+0 0  9990
2 56370   0.0266 282.2094 0000142   7.2946 141.7483  1.00271159  9170
ARCTURUS                
1 56371U 23060B   25308.88814519 -.00000155  00000+0  00000+0 0  9995
2 56371   2.1953  82.7449 0000466 200.5395  58.7251  1.00272378  9207
GS-1                    
1 56372U 23060C   25308.90634529 -.00000026  00000+0  00000+0 0  9997
2 56372   2.1455  82.4603 0003312 245.8069 111.7443  1.00302917  5287
BEIDOU-3 G4             
1 56564U 23066A   25309.20966598 -.00000100  00000+0  00000+0 0  9997
2 56564   0.9013 299.1287 0004322 228.0070 113.0740  1.00271985  9142
ARABSAT-7B (BADR-8)     
1 56757U 23075A   25308.86309735  .00000157  00000+0  00000+0 0  9997
2 56757   0.0790  30.1358 0002241 296.6074  54.3520  1.00270675  8860
NVS-01 (IRNSS-1J)       
1 56759U 23076A   25308.98962771 -.00000324  00000+0  00000+0 0  9995
2 56759   2.7154 252.9159 0007507 353.1543 284.3532  1.00268145  8865
NUSANTARA TIGA (SATRIA) 
1 57045U 23086A   25308.92151204 -.00000222  00000+0  00000+0 0  9997
2 57045   0.0434 330.8626 0004161 316.1724 235.1524  1.00271665  7511
H2SAT (HEINRICH HERTZ)  
1 57213U 23093A   25301.82912450 -.00000069  00000+0  00000+0 0  9991
2 57213   0.0336 225.3793 0001762  66.4383  45.2959  0.99793009  8591
SYRACUSE 4B             
1 57214U 23093B   25308.17775001 -.00000041  00000+0  00000+0 0  9996
2 57214   0.0188 270.8701 0000251  10.0496 180.2198  1.00270350  4710
JUPITER 3 (ECHOSTAR 24) 
1 57479U 23108A   25307.14597251 -.00000137  00000+0  00000+0 0  9997
2 57479   0.0137 279.6034 0001421 303.0667 137.3584  1.00271395  8387
GALAXY 37 (G-37)        
1 57493U 23112A   25308.30656068  .00000060  00000+0  00000+0 0  9993
2 57493   0.0203 279.9885 0002367 313.1349 154.0728  1.00273667  8282
LUDI TANCE-4 01A        
1 57624U 23120A   25307.69738451 -.00000173  00000+0  00000+0 0  9992
2 57624  15.2641 199.5593 0005642  70.2222 114.1964  1.00268204  8285
TJS-10                  
1 58204U 23169A   25309.53957191  .00000014  00000+0  00000+0 0  9992
2 58204   1.9640  83.1704 0005653 153.7818 175.3482  1.00271713  7296
